NORAD_CAT_ID,OBJECT_NAME,OBJECT_TYPE,EPOCH,MEAN_MOTION,ECCENTRICITY,INCLINATION,RA_OF_ASC_NODE,ARG_OF_PERICENTER,MEAN_ANOMALY,BSTAR,MEAN_MOTION_DOT,MEAN_MOTION_DDOT,TLE_LINE0,TLE_LINE1,TLE_LINE2,SEMIMAJOR_AXIS,PERIOD,APOGEE,PERIGEE,DECAYED
52703.0,STARLINK-4020,PAYLOAD,2024-03-05 14:27:09,15.08835165,0.000114,53.2179,189.5737,105.1256,254.9863,-2.2192e-05,-6.41e-06,0.0,0 STARLINK-4020,1 52703U 22053AZ  24065.60219558 -.00000641  00000-0 -22192-4 0  9995,2 52703  53.2179 189.5737 0001140 105.1256 254.9863 15.08835165 99212,6917.895,95.438,540.549,538.972,0.0
52703.0,STARLINK-4020,PAYLOAD,2024-03-06 14:17:56,15.08849252,0.0001315,53.218,185.1194,89.3358,270.7784,-1.8129e-05,-5.77e-06,0.0,0 STARLINK-4020,1 52703U 22053AZ  24066.59579285 -.00000577  00000-0 -18129-4 0  9993,2 52703  53.2180 185.1194 0001315  89.3358 270.7784 15.08849252 99369,6917.852,95.437,540.627,538.807,0.0
52703.0,STARLINK-4020,PAYLOAD,2024-03-07 01:25:37,15.08856118,0.0001374,53.2182,183.0371,87.5814,272.5336,3.4208e-05,2.57e-06,0.0,0 STARLINK-4020,1 52703U 22053AZ  24067.05946246  .00000257  00000-0  34208-4 0  9999,2 52703  53.2182 183.0371 0001374  87.5814 272.5336 15.08856118100283,6917.831,95.437,540.647,538.746,0.0
52703.0,STARLINK-4020,PAYLOAD,2024-03-07 14:08:44,15.08826635,0.0001308,53.2169,180.6552,104.414,255.6997,0.0001025,1.343e-05,0.0,0 STARLINK-4020,1 52703U 22053AZ  24067.58940661  .00001343  00000-0  10250-3 0  9999,2 52703  53.2169 180.6552 0001308 104.4140 255.6997 15.08826635 99519,6917.921,95.438,540.691,538.881,0.0
52703.0,STARLINK-4020,PAYLOAD,2024-03-08 10:48:45,15.08843057,0.0001667,53.2172,176.7924,103.8938,256.224,0.00011924,1.61e-05,0.0,0 STARLINK-4020,1 52703U 22053AZ  24068.45052212  .00001610  00000-0  11924-3 0  9998,2 52703  53.2172 176.7924 0001667 103.8938 256.2240 15.08843057100493,6917.871,95.437,540.889,538.583,0.0
52703.0,STARLINK-4020,PAYLOAD,2024-03-08 13:59:31,15.08844719,0.0001414,53.216,176.1993,89.0518,271.0636,0.00017036,2.425e-05,0.0,0 STARLINK-4020,1 52703U 22053AZ  24068.58300286  .00002425  00000-0  17036-3 0  9994,2 52703  53.2160 176.1993 0001414  89.0518 271.0636 15.08844719 99665,6917.866,95.437,540.709,538.753,0.0
52703.0,STARLINK-4020,PAYLOAD,2024-03-08 23:31:49,15.08858958,0.0001487,53.2164,174.4163,85.6328,274.4834,0.00027488,4.092e-05,0.0,0 STARLINK-4020,1 52703U 22053AZ  24068.98043298  .00004092  00000-0  27488-3 0  9999,2 52703  53.2164 174.4163 0001487  85.6328 274.4834 15.08858958100570,6917.822,95.436,540.716,538.659,0.0
52703.0,STARLINK-4020,PAYLOAD,2024-03-09 10:39:32,15.08830199,0.0001697,53.2175,172.3328,97.6674,262.4511,0.00011892,1.605e-05,0.0,0 STARLINK-4020,1 52703U 22053AZ  24069.44413018  .00001605  00000-0  11892-3 0  9991,2 52703  53.2175 172.3328 0001697  97.6674 262.4511 15.08830199100646,6917.91,95.438,540.949,538.601,0.0
52703.0,STARLINK-4020,PAYLOAD,2024-03-09 13:50:18,15.08835287,0.0001661,53.2184,171.741,101.2545,258.8634,8.9637e-05,1.139e-05,0.0,0 STARLINK-4020,1 52703U 22053AZ  24069.57660622  .00001139  00000-0  89637-4 0  9995,2 52703  53.2184 171.7410 0001661 101.2545 258.8634 15.08835287 99815,6917.895,95.438,540.909,538.611,0.0
52703.0,STARLINK-4020,PAYLOAD,2024-03-09 23:22:36,15.08850532,0.0001187,53.2169,169.9565,98.3196,261.7931,0.00025508,3.775e-05,0.0,0 STARLINK-4020,1 52703U 22053AZ  24069.97403913  .00003775  00000-0  25508-3 0  9991,2 52703  53.2169 169.9565 0001187  98.3196 261.7931 15.08850532100725,6917.848,95.437,540.534,538.892,0.0
52703.0,STARLINK-4020,PAYLOAD,2024-03-10 13:41:05,15.08837072,0.0001467,53.2172,167.2789,97.3382,262.7777,2.0534e-05,3.9e-07,0.0,0 STARLINK-4020,1 52703U 22053AZ  24070.57020677  .00000039  00000-0  20534-4 0  9996,2 52703  53.2172 167.2789 0001467  97.3382 262.7777 15.08837072100818,6917.889,95.438,540.769,538.739,0.0
52703.0,STARLINK-4020,PAYLOAD,2024-03-11 11:56:29,15.08840802,0.0001633,53.2186,163.1162,97.195,262.9228,0.00023585,3.468e-05,0.0,0 STARLINK-4020,1 52703U 22053AZ  24071.49756850  .00003468  00000-0  23585-3 0  9994,2 52703  53.2186 163.1162 0001633  97.1950 262.9228 15.08840802100107,6917.878,95.438,540.873,538.613,0.0
52703.0,STARLINK-4020,PAYLOAD,2024-03-12 05:25:44,15.08851405,0.0001617,53.2182,159.845,94.7628,265.3549,0.00035501,5.368e-05,0.0,0 STARLINK-4020,1 52703U 22053AZ  24072.22620411  .00005368  00000-0  35501-3 0  9991,2 52703  53.2182 159.8450 0001617  94.7628 265.3549 15.08851405101062,6917.846,95.437,540.829,538.592,0.0
52703.0,STARLINK-4020,PAYLOAD,2024-03-12 11:47:16,15.08846392,0.0001573,53.2176,158.6546,91.4971,268.6202,0.00020875,3.036e-05,0.0,0 STARLINK-4020,1 52703U 22053AZ  24072.49116530  .00003036  00000-0  20875-3 0  9990,2 52703  53.2176 158.6546 0001573  91.4971 268.6202 15.08846392101100,6917.861,95.437,540.814,538.638,0.0
52703.0,STARLINK-4020,PAYLOAD,2024-03-13 11:38:03,15.08843971,0.0001506,53.2172,154.1927,93.1112,267.0052,0.00011835,1.596e-05,0.0,0 STARLINK-4020,1 52703U 22053AZ  24073.48476455  .00001596  00000-0  11835-3 0  9990,2 52703  53.2172 154.1927 0001506  93.1112 267.0052 15.08843971101254,6917.868,95.437,540.775,538.691,0.0
52703.0,STARLINK-4020,PAYLOAD,2024-03-14 05:07:18,15.08843742,0.0001529,53.2174,150.9221,93.6484,266.4683,0.00013898,1.925e-05,0.0,0 STARLINK-4020,1 52703U 22053AZ  24074.21340439  .00001925  00000-0  13898-3 0  9991,2 52703  53.2174 150.9221 0001529  93.6484 266.4683 15.08843742100516,6917.869,95.437,540.792,538.676,0.0
52703.0,STARLINK-4020,PAYLOAD,2024-03-14 11:28:50,15.08842433,0.0001416,53.2164,149.732,90.1106,270.0048,0.00010039,1.31e-05,0.0,0 STARLINK-4020,1 52703U 22053AZ  24074.47836446  .00001310  00000-0  10039-3 0  9999,2 52703  53.2164 149.7320 0001416  90.1106 270.0048 15.08842433101400,6917.873,95.437,540.718,538.758,0.0
52703.0,STARLINK-4020,PAYLOAD,2024-03-15 11:19:37,15.08849007,0.0001473,53.2163,145.2715,92.9099,267.2062,0.00017674,2.527e-05,0.0,0 STARLINK-4020,1 52703U 22053AZ  24075.47195921  .00002527  00000-0  17674-3 0  9999,2 52703  53.2163 145.2715 0001473  92.9099 267.2062 15.08849007100702,6917.853,95.437,540.737,538.699,0.0
52703.0,STARLINK-4020,PAYLOAD,2024-03-16 04:48:51,15.08839248,0.0001495,53.2181,142.0056,94.0985,266.0178,0.00014134,1.962e-05,0.0,0 STARLINK-4020,1 52703U 22053AZ  24076.20060078  .00001962  00000-0  14134-3 0  9995,2 52703  53.2181 142.0056 0001495  94.0985 266.0178 15.08839248101663,6917.883,95.438,540.782,538.713,0.0
52703.0,STARLINK-4020,PAYLOAD,2024-03-16 11:10:25,15.08825968,0.0001599,53.2167,140.8135,106.0263,254.0905,-0.0001454,-2.6e-05,0.0,0 STARLINK-4020,1 52703U 22053AZ  24076.46556807 -.00002600  00000-0 -14540-3 0  9996,2 52703  53.2167 140.8135 0001599 106.0263 254.0905 15.08825968101703,6917.923,95.438,540.894,538.682,0.0
52703.0,STARLINK-4020,PAYLOAD,2024-03-17 04:39:39,15.08835645,0.0001375,53.2154,137.5335,107.972,252.1422,-0.00014637,-2.616e-05,0.0,0 STARLINK-4020,1 52703U 22053AZ  24077.19420545 -.00002616  00000-0 -14637-3 0  9990,2 52703  53.2154 137.5335 0001375 107.9720 252.1422 15.08835645101812,6917.894,95.438,540.71,538.807,0.0
52703.0,STARLINK-4020,PAYLOAD,2024-03-17 11:01:11,15.08841006,0.0001357,53.2161,136.3473,95.4153,264.6994,-2.681e-05,-7.15e-06,0.0,0 STARLINK-4020,1 52703U 22053AZ  24077.45916409 -.00000715  00000-0 -26810-4 0  9993,2 52703  53.2161 136.3473 0001357  95.4153 264.6994 15.08841006101002,6917.877,95.437,540.681,538.804,0.0
52703.0,STARLINK-4020,PAYLOAD,2024-03-18 10:51:59,15.08834237,0.0001428,53.2157,131.8883,92.6322,267.4833,0.00016591,2.353e-05,0.0,0 STARLINK-4020,1 52703U 22053AZ  24078.45277264  .00002353  00000-0  16591-3 0  9995,2 52703  53.2157 131.8883 0001428  92.6322 267.4833 15.08834237102000,6917.898,95.438,540.751,538.775,0.0
52703.0,STARLINK-4020,PAYLOAD,2024-03-19 10:42:46,15.08848476,0.000147,53.2157,127.4302,92.858,267.2581,0.00026673,3.961e-05,0.0,0 STARLINK-4020,1 52703U 22053AZ  24079.44636858  .00003961  00000-0  26673-3 0  9991,2 52703  53.2157 127.4302 0001470  92.8580 267.2581 15.08848476102156,6917.854,95.437,540.736,538.703,0.0
52703.0,STARLINK-4020,PAYLOAD,2024-03-20 10:33:33,15.08839447,0.0001523,53.216,122.9706,90.8963,269.2203,0.00010366,1.362e-05,0.0,0 STARLINK-4020,1 52703U 22053AZ  24080.43997387  .00001362  00000-0  10366-3 0  9994,2 52703  53.2160 122.9706 0001523  90.8963 269.2203 15.08839447102308,6917.882,95.438,540.801,538.693,0.0
52703.0,STARLINK-4020,PAYLOAD,2024-03-21 08:48:57,15.08838174,0.000152,53.2158,118.8066,95.7639,264.3526,2.3748e-05,9e-07,0.0,0 STARLINK-4020,1 52703U 22053AZ  24081.36733566  .00000090  00000-0  23748-4 0  9990,2 52703  53.2158 118.8066 0001520  95.7639 264.3526 15.08838174101599,6917.886,95.438,540.802,538.699,0.0
52703.0,STARLINK-4020,PAYLOAD,2024-03-22 05:28:58,15.08839978,0.0001517,53.2166,114.9395,98.9959,261.1205,0.0001205,1.63e-05,0.0,0 STARLINK-4020,1 52703U 22053AZ  24082.22845509  .00001630  00000-0  12050-3 0  9991,2 52703  53.2166 114.9395 0001517  98.9959 261.1205 15.08839978102577,6917.88,95.438,540.795,538.696,0.0
52703.0,STARLINK-4020,PAYLOAD,2024-03-22 11:50:31,15.08839926,0.0001494,53.2154,113.7496,98.3603,261.7558,0.00014962,2.094e-05,0.0,0 STARLINK-4020,1 52703U 22053AZ  24082.49341700  .00002094  00000-0  14962-3 0  9993,2 52703  53.2154 113.7496 0001494  98.3603 261.7558 15.08839926101767,6917.881,95.438,540.779,538.712,0.0
52703.0,STARLINK-4020,PAYLOAD,2024-03-23 05:19:46,15.08835613,0.0001539,53.2165,110.477,103.6684,256.448,5.0034e-05,5.08e-06,0.0,0 STARLINK-4020,1 52703U 22053AZ  24083.22206197  .00000508  00000-0  50034-4 0  9994,2 52703  53.2165 110.4770 0001539 103.6684 256.4480 15.08835613102728,6917.894,95.438,540.823,538.694,0.0
52703.0,STARLINK-4020,PAYLOAD,2024-03-23 08:30:32,15.08834239,0.0001489,53.2167,109.8823,102.9324,257.1834,2.6013e-05,1.26e-06,0.0,0 STARLINK-4020,1 52703U 22053AZ  24083.35454330  .00000126  00000-0  26013-4 0  9998,2 52703  53.2167 109.8823 0001489 102.9324 257.1834 15.08834239101899,6917.898,95.438,540.793,538.733,0.0
